GLOBALSTAR M068 [-]     
1 32266U 07048D   24058.85684427 -.00000084  00000+0  11219-3 0  9990
2 32266  51.9900 311.1723 0001037 124.9300 311.9040 12.62780500757797
GLOBALSTAR M079 [+]     
1 37188U 10054A   24058.44368302 -.00000070  00000+0  18775-3 0  9994
2 37188  52.0029 148.0261 0000546  99.7622 340.7879 12.62266916616371
GLOBALSTAR M074 [+]     
1 37189U 10054B   24058.53470883 -.00000069  00000+0  19150-3 0  9999
2 37189  52.0008 147.1457 0000751 116.5491 257.4109 12.62265614616998
GLOBALSTAR M076 [+]     
1 37190U 10054C   24058.58194373 -.00000071  00000+0  18385-3 0  9995
2 37190  52.0020 147.1313 0000959  82.7189  25.0912 12.62274940616716
GLOBALSTAR M077 [+]     
1 37191U 10054D   24058.38967579 -.00000072  00000+0  17559-3 0  9993
2 37191  52.0067 104.4357 0000576 118.1253 255.5807 12.62270094617061
GLOBALSTAR M075 [+]     
1 37192U 10054E   24058.65360958 -.00000094  00000+0  55733-4 0  9993
2 37192  51.9933 189.4339 0000714  99.8173 273.8621 12.62270956615955
GLOBALSTAR M073 [+]     
1 37193U 10054F   24058.52952500 -.00000069  00000+0  19361-3 0  9998
2 37193  52.0053 103.2655 0000511 105.7002  65.7033 12.62262218617767
GLOBALSTAR M083 [+]     
1 37739U 11033A   24058.46241928 -.00000113  00000+0 -52585-4 0  9997
2 37739  51.9864  52.8503 0000166 130.2257  35.7002 12.62265967586776
GLOBALSTAR M088 [+]     
1 37740U 11033B   24058.43702999 -.00000075  00000+0  15948-3 0  9993
2 37740  51.9752 318.8226 0000479  56.0606 114.9834 12.62265224582316
GLOBALSTAR M091 [+]     
1 37741U 11033C   24058.04894715 -.00000084  00000+0  10799-3 0  9998
2 37741  51.9989 282.7084 0000540  64.4330  82.1322 12.62271783583053
GLOBALSTAR M085 [+]     
1 37742U 11033D   24058.48277490 -.00000115  00000+0 -61564-4 0  9995
2 37742  51.9841 232.8459 0000642  90.0991 288.2016 12.62268121583628
GLOBALSTAR M081 [+]     
1 37743U 11033E   24058.51266611 -.00000105  00000+0 -90655-5 0  9996
2 37743  51.9931 235.2478 0000704  72.0319 322.6560 12.62270208583772
GLOBALSTAR M089 [+]     
1 37744U 11033F   24058.62860396 -.00000102  00000+0  10751-4 0  9993
2 37744  51.9916 189.2121 0001033  89.3360 291.6680 12.62254623584639
GLOBALSTAR M084 [+]     
1 38040U 11080A   24058.17948071 -.00000099  00000+0  28859-4 0  9995
2 38040  52.0013  57.6137 0000637  90.9182 348.4437 12.62271385562555
GLOBALSTAR M080 [+]     
1 38041U 11080B   24058.49001104 -.00000101  00000+0  15971-4 0  9993
2 38041  52.0064  58.1086 0000718  75.6019  94.8352 12.62269470562718
GLOBALSTAR M082 [+]     
1 38042U 11080C   24058.58241417 -.00000101  00000+0  13880-4 0  9994
2 38042  52.0101  13.2235 0000298 189.8269 341.0740 12.62266133563438
GLOBALSTAR M092 [+]     
1 38043U 11080D   24058.55489609 -.00000084  00000+0  11300-3 0  9993
2 38043  52.0077 103.6611 0000727 119.8007  45.0194 12.62276825561883
GLOBALSTAR M090 [+]     
1 38044U 11080E   24058.60870809 -.00000091  00000+0  72095-4 0  9993
2 38044  51.9913   7.5638 0000176  90.1882  81.2376 12.62266450563555
GLOBALSTAR M086 [+]     
1 38045U 11080F   24058.63530583 -.00000091  00000+0  69722-4 0  9992
2 38045  51.9925   7.9980 0001077   9.1382 162.5432 12.62267591563507
GLOBALSTAR M097 [+]     
1 39072U 13005A   24058.86145075 -.00000083  00000+0  11869-3 0  9994
2 39072  52.0037 281.3758 0000602  64.4639 295.6289 12.62261191510866
GLOBALSTAR M093 [+]     
1 39073U 13005B   24058.28061993 -.00000087  00000+0  93432-4 0  9998
2 39073  51.9798 277.2079 0000545  56.5604 303.5315 12.62261587510665
GLOBALSTAR M094 [+]     
1 39074U 13005C   24058.51823673 -.00000103  00000+0  47441-5 0  9995
2 39074  51.9940 190.3875 0000601  98.3775 261.7160 12.62263139512301
GLOBALSTAR M096 [+]     
1 39075U 13005D   24058.53148333 -.00000112  00000+0 -45393-4 0  9995
2 39075  52.0048 238.4918 0000617  77.7574 282.3362 12.62273044511229
GLOBALSTAR M078 [+]     
1 39076U 13005E   24058.42626162 -.00000129  00000+0 -14326-3 0  9994
2 39076  51.9897 323.9727 0000753 171.3950 188.6929 12.62261665509835
GLOBALSTAR M095 [+]     
1 39077U 13005F   24058.84810307 -.00000066  00000+0  21030-3 0  9996
2 39077  51.9819 320.1179 0000078 144.4271 215.6600 12.62263812510102
GLOBALSTAR M087 [+]     
1 52888U 22064A   24058.51872948 -.00000116  00000+0  23504-4 0  9994
2 52888  51.9736 234.2752 0010316  84.5474 275.6603 13.37566216 82719
